ORBCOMM FM37            
1 33064U 08031E   25207.59744172  .00001544  00000+0  23038-3 0  9995
2 33064  48.4392 156.2614 0005058 189.5925 340.7019 14.79867910919881
ORBCOMM FM40            
1 33065U 08031F   25207.30864483  .00002172  00000+0  29664-3 0  9992
2 33065  48.4406 141.0121 0006273 200.8122 299.1870 14.82154071919961
VESSELSAT 1             
1 37840U 11058C   25207.69192830  .00000337  00000+0  39239-4 0  9993
2 37840  19.9604 214.8456 0013467 261.0955  98.7924 14.11359306711890
ORBCOMM FM109           
1 40086U 14040A   25207.65151751  .00000602  00000+0  16574-3 0  9997
2 40086  47.0020 189.9040 0001405 203.1095 156.9728 14.58217120586822
ORBCOMM FM107           
1 40087U 14040B   25207.95224480  .00000568  00000+0  15818-3 0  9992
2 40087  47.0036 189.4329 0000127  63.8568 296.2330 14.58291888586944
ORBCOMM FM106           
1 40088U 14040C   25207.87086638  .00000990  00000+0  19648-3 0  9999
2 40088  47.0618   8.7402 0017519 250.9158 108.9836 14.69511101589312
ORBCOMM FM111           
1 40089U 14040D   25207.47355709  .00002459  00000+0  29754-3 0  9995
2 40089  46.9993 215.5060 0030199  18.4083 341.7900 14.86451488596078
ORBCOMM FM104           
1 40090U 14040E   25207.64142448  .00000375  00000+0  12088-3 0  9997
2 40090  47.0034 224.9858 0016020  21.4238 338.7314 14.56685769586375
